start=new Date('2023-01-31T00:00:00.000Z').valueOf();
sats=[{"TIME_SYSTEM":"UTC","RCS_SIZE":"LARGE","RA_OF_ASC_NODE":"123.3887","NORAD_CAT_ID":"47625","APOAPSIS":"547.916","TLE_LINE1":"1 47625U 21012F   23030.45341244  .00003946  00000-0  28360-3 0  9999","MEAN_MOTION":"15.06403155","REV_AT_EPOCH":"10851","GP_ID":"224027601","ARG_OF_PERICENTER":"76.7754","FILE":"3765651","EPHEMERIS_TYPE":"0","OBJECT_TYPE":"PAYLOAD","SITE":"AFETR","ELEMENT_SET_NO":"999","MEAN_ANOMALY":"283.3349","SEMIMAJOR_AXIS":"6925.339","INCLINATION":"53.0536","PERIAPSIS":"546.492","LAUNCH_DATE":"2021-02-16","CENTER_NAME":"EARTH","PERIOD":"95.592","TLE_LINE2":"2 47625  53.0536 123.3887 0001028  76.7754 283.3349 15.06403155108514","ECCENTRICITY":"0.00010280","CLASSIFICATION_TYPE":"U","REF_FRAME":"TEME","EPOCH":"2023-01-30T10:52:54.834816","OBJECT_ID":"2021-012F","DECAY_DATE":null,"BSTAR":"0.00028360000000","MEAN_MOTION_DOT":"0.00003946","COUNTRY_CODE":"US","OBJECT_NAME":"STARLINK-1704","MEAN_MOTION_DDOT":"0.0000000000000","MEAN_ELEMENT_THEORY":"SGP4"},{"PERIOD":"95.592","TLE_LINE2":"2 47626  53.0544 122.5819 0001306  88.8299 271.2839 15.06401477109052","CLASSIFICATION_TYPE":"U","ECCENTRICITY":"0.00013060","DECAY_DATE":null,"EPOCH":"2023-01-30T15:19:39.469728","OBJECT_ID":"2021-012G","REF_FRAME":"TEME","MEAN_MOTION_DOT":"0.00001077","BSTAR":"0.00009121000000","MEAN_MOTION_DDOT":"0.0000000000000","OBJECT_NAME":"STARLINK-1761","MEAN_ELEMENT_THEORY":"SGP4","COUNTRY_CODE":"US","TLE_LINE1":"1 47626U 21012G   23030.63865127  .00001077  00000-0  91210-4 0  9999","NORAD_CAT_ID":"47626","APOAPSIS":"548.113","RCS_SIZE":"LARGE","TIME_SYSTEM":"UTC","RA_OF_ASC_NODE":"122.5819","EPHEMERIS_TYPE":"0","FILE":"3765849","REV_AT_EPOCH":"10905","GP_ID":"224052374","ARG_OF_PERICENTER":"88.8299","MEAN_MOTION":"15.06401477","ELEMENT_SET_NO":"999","SITE":"AFETR","OBJECT_TYPE":"PAYLOAD","MEAN_ANOMALY":"271.2839","SEMIMAJOR_AXIS":"6925.344","INCLINATION":"53.0544","CENTER_NAME":"EARTH","LAUNCH_DATE":"2021-02-16","PERIAPSIS":"546.305"},{"FILE":"3765849","EPHEMERIS_TYPE":"0","GP_ID":"224053625","REV_AT_EPOCH":"11035","ARG_OF_PERICENTER":"88.8887","MEAN_MOTION":"15.06411363","TLE_LINE1":"1 47627U 21012H   23030.58290677 -.00001364  00000-0 -72669-4 0  9994","NORAD_CAT_ID":"47627","APOAPSIS":"548.347","RCS_SIZE":"LARGE","TIME_SYSTEM":"UTC","RA_OF_ASC_NODE":"27.8307","ELEMENT_SET_NO":"999","SITE":"AFETR","OBJECT_TYPE":"PAYLOAD","SEMIMAJOR_AXIS":"6925.314","MEAN_ANOMALY":"271.2295","CENTER_NAME":"EARTH","PERIAPSIS":"546.010","LAUNCH_DATE":"2021-02-16","INCLINATION":"53.0530","TLE_LINE2":"2 47627  53.0530  27.8307 0001687  88.8887 271.2295 15.06411363110358","PERIOD":"95.591","CLASSIFICATION_TYPE":"U","ECCENTRICITY":"0.00016870","DECAY_DATE":null,"OBJECT_ID":"2021-012H","EPOCH":"2023-01-30T13:59:23.144928","REF_FRAME":"TEME","MEAN_MOTION_DDOT":"0.0000000000000","MEAN_ELEMENT_THEORY":"SGP4","OBJECT_NAME":"STARLINK-1972","COUNTRY_CODE":"US","MEAN_MOTION_DOT":"-0.00001364","BSTAR":"-0.00007266900000"},{"INCLINATION":"53.0528","LAUNCH_DATE":"2021-02-16","PERIAPSIS":"546.297","CENTER_NAME":"EARTH","MEAN_ANOMALY":"258.6943","SEMIMAJOR_AXIS":"6925.345","OBJECT_TYPE":"PAYLOAD","SITE":"AFETR","ELEMENT_SET_NO":"999","TIME_SYSTEM":"UTC","RCS_SIZE":"LARGE","RA_OF_ASC_NODE":"123.2967","APOAPSIS":"548.123","NORAD_CAT_ID":"47628","TLE_LINE1":"1 47628U 21012J   23030.47552046  .00001771  00000-0  13777-3 0  9998","MEAN_MOTION":"15.06401086","REV_AT_EPOCH":"10903","GP_ID":"223995418","ARG_OF_PERICENTER":"101.4194","FILE":"3765576","EPHEMERIS_TYPE":"0","BSTAR":"0.00013777000000","MEAN_MOTION_DOT":"0.00001771","COUNTRY_CODE":"US","OBJECT_NAME":"STARLINK-1973","MEAN_MOTION_DDOT":"0.0000000000000","MEAN_ELEMENT_THEORY":"SGP4","REF_FRAME":"TEME","EPOCH":"2023-01-30T11:24:44.967744","OBJECT_ID":"2021-012J","DECAY_DATE":null,"ECCENTRICITY":"0.00013180","CLASSIFICATION_TYPE":"U","PERIOD":"95.592","TLE_LINE2":"2 47628  53.0528 123.2967 0001318 101.4194 258.6943 15.06401086109036"},{"TLE_LINE2":"2 47629  53.0519   1.3049 0001442  94.4699 265.6455 15.06399837110761","PERIOD":"95.592","ECCENTRICITY":"0.00014420","CLASSIFICATION_TYPE":"U","REF_FRAME":"TEME","EPOCH":"2023-01-30T22:08:21.878016","OBJECT_ID":"2021-012K","DECAY_DATE":null,"COUNTRY_CODE":"US","MEAN_MOTION_DDOT":"0.0000000000000","MEAN_ELEMENT_THEORY":"SGP4","OBJECT_NAME":"STARLINK-1974","BSTAR":"0.00011880000000","MEAN_MOTION_DOT":"0.00001488","MEAN_MOTION":"15.06399837","GP_ID":"224052624","REV_AT_EPOCH":"11076","ARG_OF_PERICENTER":"94.4699","FILE":"3765849","EPHEMERIS_TYPE":"0","TIME_SYSTEM":"UTC","RCS_SIZE":"LARGE","RA_OF_ASC_NODE":"1.3049","NORAD_CAT_ID":"47629","APOAPSIS":"548.213","TLE_LINE1":"1 47629U 21012K   23030.92247544  .00001488  00000-0  11880-3 0  9991","OBJECT_TYPE":"PAYLOAD","SITE":"AFETR","ELEMENT_SET_NO":"999","SEMIMAJOR_AXIS":"6925.349","MEAN_ANOMALY":"265.6455","LAUNCH_DATE":"2021-02-16","PERIAPSIS":"546.215","CENTER_NAME":"EARTH","INCLINATION":"53.0519"},{"EPOCH":"2023-01-30T21:07:19.980768","OBJECT_ID":"2021-012L","REF_FRAME":"TEME","DECAY_DATE":null,"MEAN_MOTION_DOT":"-0.00001215","BSTAR":"-0.00006270300000","MEAN_ELEMENT_THEORY":"SGP4","MEAN_MOTION_DDOT":"0.0000000000000","OBJECT_NAME":"STARLINK-1983","COUNTRY_CODE":"US","PERIOD":"95.592","TLE_LINE2":"2 47630  53.0539 101.5811 0001178  80.8111 279.3012 15.06400307109358","ECCENTRICITY":"0.00011780","CLASSIFICATION_TYPE":"U","MEAN_ANOMALY":"279.3012","SEMIMAJOR_AXIS":"6925.348","INCLINATION":"53.0539","LAUNCH_DATE":"2021-02-16","PERIAPSIS":"546.397","CENTER_NAME":"EARTH","NORAD_CAT_ID":"47630","APOAPSIS":"548.028","TIME_SYSTEM":"UTC","RCS_SIZE":"LARGE","RA_OF_ASC_NODE":"101.5811","TLE_LINE1":"1 47630U 21012L   23030.88009237 -.00001215  00000-0 -62703-4 0  9994","GP_ID":"224052874","REV_AT_EPOCH":"10935","ARG_OF_PERICENTER":"80.8111","MEAN_MOTION":"15.06400307","EPHEMERIS_TYPE":"0","FILE":"3765849","SITE":"AFETR","OBJECT_TYPE":"PAYLOAD","ELEMENT_SET_NO":"999"},{"TLE_LINE2":"2 47632  53.0548  29.1957 0001684  93.6414 266.4768 15.06418870109816","PERIOD":"95.591","CLASSIFICATION_TYPE":"U","ECCENTRICITY":"0.00016840","DECAY_DATE":null,"REF_FRAME":"TEME","EPOCH":"2023-01-30T06:37:29.092224","OBJECT_ID":"2021-012N","COUNTRY_CODE":"US","MEAN_MOTION_DDOT":"0.0000000000000","MEAN_ELEMENT_THEORY":"SGP4","OBJECT_NAME":"STARLINK-1992","BSTAR":"0.00034549000000","MEAN_MOTION_DOT":"0.00004871","EPHEMERIS_TYPE":"0","FILE":"3765653","MEAN_MOTION":"15.06418870","GP_ID":"224027628","ARG_OF_PERICENTER":"93.6414","REV_AT_EPOCH":"10981","TLE_LINE1":"1 47632U 21012N   23030.27603116  .00004871  00000-0  34549-3 0  9990","TIME_SYSTEM":"UTC","RCS_SIZE":"LARGE","RA_OF_ASC_NODE":"29.1957","APOAPSIS":"548.322","NORAD_CAT_ID":"47632","ELEMENT_SET_NO":"999","OBJECT_TYPE":"PAYLOAD","SITE":"AFETR","SEMIMAJOR_AXIS":"6925.291","MEAN_ANOMALY":"266.4768","CENTER_NAME":"EARTH","LAUNCH_DATE":"2021-02-16","PERIAPSIS":"545.990","INCLINATION":"53.0548"},{"SITE":"AFETR","OBJECT_TYPE":"PAYLOAD","ELEMENT_SET_NO":"999","NORAD_CAT_ID":"47633","APOAPSIS":"548.148","TIME_SYSTEM":"UTC","RCS_SIZE":"LARGE","RA_OF_ASC_NODE":"122.6652","TLE_LINE1":"1 47633U 21012P   23030.62665575  .00000151  00000-0  29012-4 0  9994","ARG_OF_PERICENTER":"101.4306","GP_ID":"224053376","REV_AT_EPOCH":"10907","MEAN_MOTION":"15.06394152","EPHEMERIS_TYPE":"0","FILE":"3765849","INCLINATION":"53.0518","PERIAPSIS":"546.315","LAUNCH_DATE":"2021-02-16","CENTER_NAME":"EARTH","MEAN_ANOMALY":"258.6832","SEMIMAJOR_AXIS":"6925.366","ECCENTRICITY":"0.00013230","CLASSIFICATION_TYPE":"U","PERIOD":"95.593","TLE_LINE2":"2 47633  53.0518 122.6652 0001323 101.4306 258.6832 15.06394152109072","MEAN_MOTION_DOT":"0.00000151","BSTAR":"0.00002901200000","MEAN_ELEMENT_THEORY":"SGP4","MEAN_MOTION_DDOT":"0.0000000000000","OBJECT_NAME":"STARLINK-2009","COUNTRY_CODE":"US","OBJECT_ID":"2021-012P","EPOCH":"2023-01-30T15:02:23.056800","REF_FRAME":"TEME","DECAY_DATE":null},{"ECCENTRICITY":"0.00011830","CLASSIFICATION_TYPE":"U","TLE_LINE2":"2 47634  53.0537 123.3407 0001183  87.7072 272.4053 15.06393571108511","PERIOD":"95.593","COUNTRY_CODE":"US","MEAN_MOTION_DDOT":"0.0000000000000","OBJECT_NAME":"STARLINK-2010","MEAN_ELEMENT_THEORY":"SGP4","BSTAR":"0.00009854800000","MEAN_MOTION_DOT":"0.00001187","REF_FRAME":"TEME","OBJECT_ID":"2021-012Q","EPOCH":"2023-01-30T11:15:30.171744","DECAY_DATE":null,"OBJECT_TYPE":"PAYLOAD","SITE":"AFETR","ELEMENT_SET_NO":"999","MEAN_MOTION":"15.06393571","REV_AT_EPOCH":"10851","GP_ID":"224027395","ARG_OF_PERICENTER":"87.7072","FILE":"3765653","EPHEMERIS_TYPE":"0","RCS_SIZE":"LARGE","TIME_SYSTEM":"UTC","RA_OF_ASC_NODE":"123.3407","APOAPSIS":"548.053","NORAD_CAT_ID":"47634","TLE_LINE1":"1 47634U 21012Q   23030.46909921  .00001187  00000-0  98548-4 0  9993","LAUNCH_DATE":"2021-02-16","PERIAPSIS":"546.414","CENTER_NAME":"EARTH","INCLINATION":"53.0537","SEMIMAJOR_AXIS":"6925.368","MEAN_ANOMALY":"272.4053"},{"ELEMENT_SET_NO":"999","SITE":"AFETR","OBJECT_TYPE":"PAYLOAD","TLE_LINE1":"1 47635U 21012R   23030.42809589  .00001399  00000-0  11282-3 0  9993","NORAD_CAT_ID":"47635","APOAPSIS":"548.462","TIME_SYSTEM":"UTC","RCS_SIZE":"LARGE","RA_OF_ASC_NODE":"28.5243","FILE":"3765653","EPHEMERIS_TYPE":"0","ARG_OF_PERICENTER":"101.0656","GP_ID":"224027403","REV_AT_EPOCH":"10983","MEAN_MOTION":"15.06401574","INCLINATION":"53.0530","CENTER_NAME":"EARTH","LAUNCH_DATE":"2021-02-16","PERIAPSIS":"545.955","MEAN_ANOMALY":"259.0536","SEMIMAJOR_AXIS":"6925.344","CLASSIFICATION_TYPE":"U","ECCENTRICITY":"0.00018100","PERIOD":"95.592","TLE_LINE2":"2 47635  53.0530  28.5243 0001810 101.0656 259.0536 15.06401574109830","MEAN_MOTION_DOT":"0.00001399","BSTAR":"0.00011282000000","MEAN_ELEMENT_THEORY":"SGP4","MEAN_MOTION_DDOT":"0.0000000000000","OBJECT_NAME":"STARLINK-2012","COUNTRY_CODE":"US","DECAY_DATE":null,"EPOCH":"2023-01-30T10:16:27.484896","OBJECT_ID":"2021-012R","REF_FRAME":"TEME"}];
